[{"OBJECT_NAME":"GAOFEN-9 03","OBJECT_ID":"2020-039A","EPOCH":"2026-03-09T21:55:15.121344","MEAN_MOTION":15.30529116,"ECCENTRICITY":0.0013094,"INCLINATION":97.5219,"RA_OF_ASC_NODE":201.2158,"ARG_OF_PERICENTER":77.4533,"MEAN_ANOMALY":282.8172,"EPHEMERIS_TYPE":0,"CLASSIFICATION_TYPE":"U","NORAD_CAT_ID":45794,"ELEMENT_SET_NO":999,"REV_AT_EPOCH":31856,"BSTAR":0.00039258132,"MEAN_MOTION_DOT":0.00011544,"MEAN_MOTION_DDOT":0},{"OBJECT_NAME":"STARLINK-34783","OBJECT_ID":"2025-253U","EPOCH":"2026-03-09T10:55:08.706432","MEAN_MOTION":15.27570908,"ECCENTRICITY":0.00013251,"INCLINATION":43.0028,"RA_OF_ASC_NODE":214.2599,"ARG_OF_PERICENTER":266.6833,"MEAN_ANOMALY":93.3867,"EPHEMERIS_TYPE":0,"CLASSIFICATION_TYPE":"U","NORAD_CAT_ID":66337,"ELEMENT_SET_NO":999,"REV_AT_EPOCH":2020,"BSTAR":0.00095156447,"MEAN_MOTION_DOT":0.00026008,"MEAN_MOTION_DDOT":0}]
